ONEWEB-0207             
1 48242U 21031AJ  25177.25143301  .00000000  00000+0 -33759-4 0  9999
2 48242  87.9029   0.5014 0001696  84.7082 275.4241 13.14503066201533
ONEWEB-0208             
1 48243U 21031AK  25177.23320105 -.00000226  00000+0 -64461-3 0  9991
2 48243  87.9029   0.5193 0002008  87.5191 272.6168 13.14502250201544
ONEWEB-0200             
1 48244U 21031AL  25177.27285073  .00000194  00000+0  48746-3 0  9990
2 48244  87.9030   0.5039 0001914  88.0878 272.0471 13.14502606201477
ONEWEB-0217             
1 48245U 21031AM  25178.20211423  .00000121  00000+0  29112-3 0  9999
2 48245  87.9033   0.3036 0002114  87.3118 272.8254 13.14502082201552
ONEWEB-0211             
1 48767U 21045A   25178.16132874  .00000067  00000+0  14262-3 0  9999
2 48767  87.9056 329.9223 0002164 100.2035 259.9340 13.16081414198877
ONEWEB-0223             
1 48768U 21045B   25177.85342591  .00000050  00000+0  99622-4 0  9990
2 48768  87.9059 330.0259 0002261 103.6961 256.4421 13.15548297197682
ONEWEB-0230             
1 48769U 21045C   25177.82489679 -.00000069  00000+0 -21619-3 0  9999
2 48769  87.9042 330.0729 0001753  99.3390 260.7939 13.15549336197945
ONEWEB-0237             
1 48770U 21045D   25177.96593781  .00000050  00000+0  97786-4 0  9993
2 48770  87.9063 330.0233 0002107 102.9893 257.1473 13.15548540198819
